#dV2007  4 12  0  0  0.00000000     289 ORBIT IGS14 BHN ESOC                    
## 1422 345600.00000000   900.00000000 54202 0.0000000000000                    
+    2   G01G02  0  0  0  0  0  0  0  0  0  0  0  0  0  0  0                    
+          0  0  0  0  0  0  0  0  0  0  0  0  0  0  0  0  0                    
+          0  0  0  0  0  0  0  0  0  0  0  0  0  0  0  0  0                    
+          0  0  0  0  0  0  0  0  0  0  0  0  0  0  0  0  0                    
+          0  0  0  0  0  0  0  0  0  0  0  0  0  0  0  0  0                    
++         8  8  0  0  0  0  0  0  0  0  0  0  0  0  0  0  0                    
++         0  0  0  0  0  0  0  0  0  0  0  0  0  0  0  0  0                    
++         0  0  0  0  0  0  0  0  0  0  0  0  0  0  0  0  0                    
++         0  0  0  0  0  0  0  0  0  0  0  0  0  0  0  0  0                    
++         0  0  0  0  0  0  0  0  0  0  0  0  0  0  0  0  0                    
%c M  cc GPS ccc cccc cccc cccc cccc ccccc ccccc ccccc ccccc                    
%c cc cc ccc ccc cccc cccc cccc cccc ccccc ccccc ccccc ccccc                    
%f  0.0000000  0.000000000  0.00000000000  0.000000000000000                    
%f  0.0000000  0.000000000  0.00000000000  0.000000000000000                    
%i    0    0    0    0      0      0      0      0         0                    
%i    0    0    0    0      0      0      0      0         0                    
/*   EUROPEAN SPACE OPERATIONS CENTRE - DARMSTADT, GERMANY                      
/* ---------------------------------------------------------                    
/*  SP3 FILE GENERATED BY NAPEOS BAHN TOOL  (DETERMINATION)                     
/* PCV:IGS14_2022 OL/AL:EOT11A   NONE     YN ORB:CoN CLK:CoN                    
*  2007  4 12 20  0  0.00000000                                                 
PG01 -19857.978482 -11334.827097 -13363.803065 999999.999999                    
VG01  -9354.489556 -14554.945795  25791.151629 999999.999999                    
PG02  16021.450939    755.510168 -21359.241968 999999.999999                    
VG02  -8160.916250  25424.805253  -5548.389664 999999.999999                    
*  2007  4 12 20 15  0.00000000                                                 
PG01 -20648.730378 -12514.954663 -10933.414107 999999.999999                    
VG01  -8137.015556 -11669.131134  28138.398135 999999.999999                    
PG02  15339.234466   3080.077415 -21676.671655 999999.999999                    
VG02  -6966.369975  26151.934112  -1497.337517 999999.999999                    
*  2007  4 12 20 30  0.00000000                                                 
PG01 -21308.436547 -13436.619502  -8313.670939 999999.999999                    
VG01  -6446.689580  -8828.127187  29993.296366 999999.999999                    
PG02  14772.232907   5447.978775 -21628.287067 999999.999999                    
VG02  -5614.376682  26383.635456   2569.580905 999999.999999                    
*  2007  4 12 20 45  0.00000000                                                 
PG01 -21795.989629 -14108.306846  -5550.293509 999999.999999                    
VG01  -4318.793293  -6129.825701  31326.084525 999999.999999                    
PG02  14330.831171   7813.758520 -21215.683830 999999.999999                    
VG02  -4189.628001  26103.468843   6585.318039 999999.999999                    
*  2007  4 12 21  0  0.00000000                                                 
PG01 -22074.263578 -14546.974816  -2691.259818 999999.999999                    
VG01  -1806.227476  -3664.028054  32116.389947 999999.999999                    
PG02  14017.686775  10131.251031 -20446.439075 999999.999999                    
VG02  -2778.599519  25312.136455  10484.153863 999999.999999                    
*  2007  4 12 21 15  0.00000000                                                 
PG01 -22111.611039 -14777.172351    214.048317 999999.999999                    
VG01   1022.555892  -1509.098040  32353.403138 999999.999999                    
PG02  13827.718345  12355.124612 -19333.950927 999999.999999                    
VG02  -1466.243704  24027.404809  14202.599335 999999.999999                    
*  2007  4 12 21 30  0.00000000                                                 
PG01 -21883.147879 -14829.877480   3115.707028 999999.999999                    
VG01   4086.197895    270.887328  32035.872915 999999.999999                    
PG02  13748.388696  14442.391520 -17897.198934 999999.999999                    
VG02   -332.768681  22283.435819  17680.250142 999999.999999                    
*  2007  4 12 21 45  0.00000000                                                 
PG01 -21371.778047 -14741.105334   5964.104148 999999.999999                    
VG01   7293.538366   1628.391223  31171.935770 999999.999999                    
PG02  13760.270018  16353.832238 -16160.429865 999999.999999                    
VG02    549.392738  20129.556102  20860.591113 999999.999999                    
*  2007  4 12 22  0  0.00000000                                                 
PG01 -20568.922936 -14550.342932   8710.770746 999999.999999                    
VG01  10547.054785   2534.003510  29778.795372 999999.999999                    
PG02  13837.869619  18055.285311 -14152.773325 999999.999999                    
VG02   1118.326726  17628.508838  23691.751946 999999.999999                    
*  2007  4 12 22 15  0.00000000                                                 
PG01 -19474.931320 -14298.872925  11309.177711 999999.999999                    
VG01  13746.498675   2977.316992  27882.269689 999999.999999                    
PG02  13950.686331  19518.758708 -11907.791525 999999.999999                    
VG02   1325.006927  14854.246552  26127.214385 999999.999999                    
*  2007  4 12 22 30  0.00000000                                                 
PG01 -18099.158295 -14028.051135  13715.486312 999999.999999                    
VG01  16792.591837   2967.077574  25516.223784 999999.999999                    
PG02  14064.460270  20723.324491  -9462.967621 999999.999999                    
VG02   1135.210650  11889.335940  28126.469841 999999.999999                    
*  2007  4 12 22 45  0.00000000                                                 
PG01 -16459.713940 -13777.602947  15889.243216 999999.999999                    
VG01  19590.647774   2530.618880  22721.905915 999999.999999                    
PG02  14142.572212  21655.765519  -6859.137205 999999.999999                    
VG02    530.918041   8822.057215  29655.624752 999999.999999                    
*  2007  4 12 23  0  0.00000000                                                 
PG01 -14582.894222 -13584.001571  17794.012040 999999.999999                    
VG01  22053.991057   1712.616117  19547.203430 999999.999999                    
PG02  14147.543675  22310.950778  -4139.867819 999999.999999                    
VG02   -488.856480   5743.290278  30687.948926 999999.999999                    
*  2007  4 12 23 15  0.00000000                                                 
PG01 -12502.317666 -13478.987042  19397.934873 999999.999999                    
VG01  24107.058309    573.215717  16045.833209 999999.999999                    
PG02  14042.584905  22691.924604  -1350.791950 999999.999999                    
VG02  -1907.835710   2743.288125  31204.359783 999999.999999                    
*  2007  4 12 23 30  0.00000000                                                 
PG01 -10257.801153 -13488.278885  20674.218493 999999.999999                    
VG01  25688.078407   -814.383989  12276.479400 999999.999999                    
PG02  13793.135544  22809.704426   1461.100330 999999.999999                    
VG02  -3692.872082    -91.555985  31193.833132 999999.999999                    
*  2007  4 12 23 45  0.00000000                                                 
PG01  -7894.016752 -13630.527861  21601.540996 999999.999999                    
VG01  26751.245517  -2366.810177   8301.889036 999999.999999                    
PG02  13368.341999  22682.791391   4248.201964 999999.999999                    
VG02  -5794.960397  -2681.837388  30653.728870 999999.999999                    
*  2007  4 13  0  0  0.00000000                                                 
PG01  -5458.978429 -13916.543464  22164.375479 999999.999999                    
VG01  27268.316288  -3993.747693   4187.934113 999999.999999                    
PG02  12742.416430  22336.408243   6963.054494 999999.999999                    
VG02  -8150.850376  -4958.053824  29590.018219 999999.999999                    
*  2007  4 13  0 15  0.00000000                                                 
PG01  -3002.412879 -14348.824073  22353.228057 999999.999999                    
VG01  27229.581378  -5601.413270      2.646997 999999.999999                    
PG02  11895.825099  21801.488729   9559.129119 999999.999999                    
VG02 -10685.217691  -6863.195489  28017.397796 999999.999999                    
*  2007  4 13  0 30  0.00000000                                                 
PG01   -574.072273 -14921.406239  22164.788075 999999.999999                    
VG01  26644.181028  -7096.152890  -4184.765276 999999.999999                    
PG02  10816.258452  21113.452351  11991.612358 999999.999999                    
VG02 -13313.330947  -8354.908807  25959.275316 999999.999999                    
*  2007  4 13  0 45  0.00000000                                                 
PG01   1777.951410 -15620.038689  21601.988853 999999.999999                    
VG01  25539.754474  -8388.040017  -8304.922892 999999.999999                    
PG02   9499.341913  20310.807069  14218.184091 999999.999999                    
VG02 -15944.131184  -9407.141594  23447.612132 999999.999999                    
EOF                                                                             
